STARLINK-1335           
1 45581U 20025BC  26068.31091840 -.00000616  00000+0 -90193-5 0  9991
2 45581  53.1576  76.8114 0001478  99.6562 260.4606 15.29356205325479
BLUEBON                 
1 62688U 25009CH  26068.70316231  .00010452  00000+0  37313-3 0  9992
2 62688  97.4017 152.2033 0001193  43.3900 316.7434 15.29047253 63767
